[{"OBJECT_NAME":"YAOGAN-36 02A","OBJECT_ID":"2022-133A","EPOCH":"2026-03-10T00:04:36.049728","MEAN_MOTION":15.23118612,"ECCENTRICITY":0.00301484,"INCLINATION":35.0077,"RA_OF_ASC_NODE":23.5078,"ARG_OF_PERICENTER":29.898,"MEAN_ANOMALY":330.345,"EPHEMERIS_TYPE":0,"CLASSIFICATION_TYPE":"U","NORAD_CAT_ID":54042,"ELEMENT_SET_NO":999,"REV_AT_EPOCH":18962,"BSTAR":0.00070143583,"MEAN_MOTION_DOT":0.00017174,"MEAN_MOTION_DDOT":0},{"OBJECT_NAME":"STARLINK-30128","OBJECT_ID":"2023-079K","EPOCH":"2026-03-09T22:00:01.999584","MEAN_MOTION":15.1645424,"ECCENTRICITY":0.00012166,"INCLINATION":42.9995,"RA_OF_ASC_NODE":79.6064,"ARG_OF_PERICENTER":264.9817,"MEAN_ANOMALY":319.4479,"EPHEMERIS_TYPE":0,"CLASSIFICATION_TYPE":"U","NORAD_CAT_ID":56832,"ELEMENT_SET_NO":999,"REV_AT_EPOCH":572,"BSTAR":0.060668261,"MEAN_MOTION_DOT":0.0130306,"MEAN_MOTION_DDOT":0}]
